[{"OBJECT_NAME":"ONEWEB-0597","OBJECT_ID":"2022-166X","EPOCH":"2025-10-29T11:44:29.764032","MEAN_MOTION":13.21827014,"ECCENTRICITY":0.0001753,"INCLINATION":87.9169,"RA_OF_ASC_NODE":290.0188,"ARG_OF_PERICENTER":86.9741,"MEAN_ANOMALY":273.1593,"EPHEMERIS_TYPE":0,"CLASSIFICATION_TYPE":"U","NORAD_CAT_ID":54663,"ELEMENT_SET_NO":999,"REV_AT_EPOCH":14106,"BSTAR":1.4692e-5,"MEAN_MOTION_DOT":1.9e-7,"MEAN_MOTION_DDOT":0},{"OBJECT_NAME":"ONEWEB-0600","OBJECT_ID":"2022-166Y","EPOCH":"2025-10-29T11:18:25.506720","MEAN_MOTION":13.21825781,"ECCENTRICITY":0.0001783,"INCLINATION":87.9171,"RA_OF_ASC_NODE":290.0131,"ARG_OF_PERICENTER":90.5584,"MEAN_ANOMALY":269.5754,"EPHEMERIS_TYPE":0,"CLASSIFICATION_TYPE":"U","NORAD_CAT_ID":54664,"ELEMENT_SET_NO":999,"REV_AT_EPOCH":14103,"BSTAR":0.00013223,"MEAN_MOTION_DOT":6.8e-7,"MEAN_MOTION_DDOT":0},{"OBJECT_NAME":"ONEWEB-0601","OBJECT_ID":"2022-166Z","EPOCH":"2025-10-29T11:06:34.615296","MEAN_MOTION":13.21826248,"ECCENTRICITY":0.0001581,"INCLINATION":87.9168,"RA_OF_ASC_NODE":290.0325,"ARG_OF_PERICENTER":83.8223,"MEAN_ANOMALY":276.3091,"EPHEMERIS_TYPE":0,"CLASSIFICATION_TYPE":"U","NORAD_CAT_ID":54665,"ELEMENT_SET_NO":999,"REV_AT_EPOCH":14122,"BSTAR":0.00016627,"MEAN_MOTION_DOT":8.2e-7,"MEAN_MOTION_DDOT":0},{"OBJECT_NAME":"ONEWEB-0602","OBJECT_ID":"2022-166AA","EPOCH":"2025-10-29T12:04:35.719680","MEAN_MOTION":13.21824731,"ECCENTRICITY":0.0001721,"INCLINATION":87.9172,"RA_OF_ASC_NODE":290.0279,"ARG_OF_PERICENTER":100.1368,"MEAN_ANOMALY":259.996,"EPHEMERIS_TYPE":0,"CLASSIFICATION_TYPE":"U","NORAD_CAT_ID":54666,"ELEMENT_SET_NO":999,"REV_AT_EPOCH":14107,"BSTAR":9.5451e-5,"MEAN_MOTION_DOT":5.2e-7,"MEAN_MOTION_DDOT":0},{"OBJECT_NAME":"ONEWEB-0603","OBJECT_ID":"2022-166AB","EPOCH":"2025-10-29T12:12:55.491840","MEAN_MOTION":13.2182542,"ECCENTRICITY":0.0001735,"INCLINATION":87.9179,"RA_OF_ASC_NODE":289.9629,"ARG_OF_PERICENTER":88.9571,"MEAN_ANOMALY":271.1762,"EPHEMERIS_TYPE":0,"CLASSIFICATION_TYPE":"U","NORAD_CAT_ID":54667,"ELEMENT_SET_NO":999,"REV_AT_EPOCH":14100,"BSTAR":3.5234e-6,"MEAN_MOTION_DOT":1.4e-7,"MEAN_MOTION_DDOT":0},{"OBJECT_NAME":"ONEWEB-0604","OBJECT_ID":"2022-166AC","EPOCH":"2025-10-29T11:56:17.475936","MEAN_MOTION":13.21826206,"ECCENTRICITY":0.0001667,"INCLINATION":87.9169,"RA_OF_ASC_NODE":289.9885,"ARG_OF_PERICENTER":91.4839,"MEAN_ANOMALY":268.6486,"EPHEMERIS_TYPE":0,"CLASSIFICATION_TYPE":"U","NORAD_CAT_ID":54668,"ELEMENT_SET_NO":999,"REV_AT_EPOCH":14096,"BSTAR":-2.7803e-5,"MEAN_MOTION_DOT":2.0e-8,"MEAN_MOTION_DDOT":0},{"OBJECT_NAME":"ONEWEB-0605","OBJECT_ID":"2022-166AD","EPOCH":"2025-10-29T11:46:51.389184","MEAN_MOTION":13.2182625,"ECCENTRICITY":0.0001527,"INCLINATION":87.9168,"RA_OF_ASC_NODE":290.0187,"ARG_OF_PERICENTER":69.547,"MEAN_ANOMALY":290.5827,"EPHEMERIS_TYPE":0,"CLASSIFICATION_TYPE":"U","NORAD_CAT_ID":54669,"ELEMENT_SET_NO":999,"REV_AT_EPOCH":14103,"BSTAR":-5.715e-6,"MEAN_MOTION_DOT":1.1e-7,"MEAN_MOTION_DDOT":0},{"OBJECT_NAME":"ONEWEB-0606","OBJECT_ID":"2022-166AE","EPOCH":"2025-10-29T12:17:39.653664","MEAN_MOTION":13.21827472,"ECCENTRICITY":0.0002069,"INCLINATION":87.9169,"RA_OF_ASC_NODE":290.0248,"ARG_OF_PERICENTER":87.8633,"MEAN_ANOMALY":272.2738,"EPHEMERIS_TYPE":0,"CLASSIFICATION_TYPE":"U","NORAD_CAT_ID":54670,"ELEMENT_SET_NO":999,"REV_AT_EPOCH":14109,"BSTAR":6.1061e-5,"MEAN_MOTION_DOT":3.8e-7,"MEAN_MOTION_DDOT":0},{"OBJECT_NAME":"ONEWEB-0607","OBJECT_ID":"2022-166AF","EPOCH":"2025-10-29T11:30:16.293600","MEAN_MOTION":13.21825799,"ECCENTRICITY":0.0001709,"INCLINATION":87.917,"RA_OF_ASC_NODE":289.9956,"ARG_OF_PERICENTER":89.8546,"MEAN_ANOMALY":270.2783,"EPHEMERIS_TYPE":0,"CLASSIFICATION_TYPE":"U","NORAD_CAT_ID":54671,"ELEMENT_SET_NO":999,"REV_AT_EPOCH":14106,"BSTAR":0.00034127,"MEAN_MOTION_DOT":1.54e-6,"MEAN_MOTION_DDOT":0},{"OBJECT_NAME":"ONEWEB-0608","OBJECT_ID":"2022-166AG","EPOCH":"2025-10-29T11:39:44.607744","MEAN_MOTION":13.21827599,"ECCENTRICITY":0.0001403,"INCLINATION":87.9175,"RA_OF_ASC_NODE":289.9783,"ARG_OF_PERICENTER":79.9892,"MEAN_ANOMALY":280.14,"EPHEMERIS_TYPE":0,"CLASSIFICATION_TYPE":"U","NORAD_CAT_ID":54672,"ELEMENT_SET_NO":999,"REV_AT_EPOCH":14107,"BSTAR":2.4134e-6,"MEAN_MOTION_DOT":1.4e-7,"MEAN_MOTION_DDOT":0},{"OBJECT_NAME":"ONEWEB-0610","OBJECT_ID":"2022-166AH","EPOCH":"2025-10-29T11:11:17.616768","MEAN_MOTION":13.21825063,"ECCENTRICITY":0.0001287,"INCLINATION":87.9168,"RA_OF_ASC_NODE":290.0188,"ARG_OF_PERICENTER":78.4088,"MEAN_ANOMALY":281.719,"EPHEMERIS_TYPE":0,"CLASSIFICATION_TYPE":"U","NORAD_CAT_ID":54673,"ELEMENT_SET_NO":999,"REV_AT_EPOCH":14097,"BSTAR":0.0002066,"MEAN_MOTION_DOT":9.8e-7,"MEAN_MOTION_DDOT":0},{"OBJECT_NAME":"ONEWEB-0611","OBJECT_ID":"2022-166AJ","EPOCH":"2025-10-29T11:01:47.863200","MEAN_MOTION":13.21826094,"ECCENTRICITY":0.0002063,"INCLINATION":87.9169,"RA_OF_ASC_NODE":290.0156,"ARG_OF_PERICENTER":91.2337,"MEAN_ANOMALY":268.9033,"EPHEMERIS_TYPE":0,"CLASSIFICATION_TYPE":"U","NORAD_CAT_ID":54674,"ELEMENT_SET_NO":999,"REV_AT_EPOCH":14096,"BSTAR":-0.00048217,"MEAN_MOTION_DOT":-1.86e-6,"MEAN_MOTION_DDOT":0},{"OBJECT_NAME":"ONEWEB-0612","OBJECT_ID":"2022-166AK","EPOCH":"2025-10-29T11:20:46.990176","MEAN_MOTION":13.2182563,"ECCENTRICITY":0.0001735,"INCLINATION":87.9172,"RA_OF_ASC_NODE":289.9916,"ARG_OF_PERICENTER":86.4292,"MEAN_ANOMALY":273.704,"EPHEMERIS_TYPE":0,"CLASSIFICATION_TYPE":"U","NORAD_CAT_ID":54675,"ELEMENT_SET_NO":999,"REV_AT_EPOCH":14095,"BSTAR":4.6728e-5,"MEAN_MOTION_DOT":3.2e-7,"MEAN_MOTION_DDOT":0},{"OBJECT_NAME":"ONEWEB-0615","OBJECT_ID":"2022-166AL","EPOCH":"2025-10-29T10:52:19.695072","MEAN_MOTION":13.21826323,"ECCENTRICITY":0.0001895,"INCLINATION":87.9171,"RA_OF_ASC_NODE":290.0221,"ARG_OF_PERICENTER":88.5242,"MEAN_ANOMALY":271.6109,"EPHEMERIS_TYPE":0,"CLASSIFICATION_TYPE":"U","NORAD_CAT_ID":54676,"ELEMENT_SET_NO":999,"REV_AT_EPOCH":14096,"BSTAR":0.000111,"MEAN_MOTION_DOT":5.9e-7,"MEAN_MOTION_DDOT":0},{"OBJECT_NAME":"ONEWEB-0655","OBJECT_ID":"2022-166AM","EPOCH":"2025-10-29T12:05:48.712992","MEAN_MOTION":13.21827791,"ECCENTRICITY":0.000168,"INCLINATION":87.9169,"RA_OF_ASC_NODE":290.0172,"ARG_OF_PERICENTER":96.2041,"MEAN_ANOMALY":263.9285,"EPHEMERIS_TYPE":0,"CLASSIFICATION_TYPE":"U","NORAD_CAT_ID":54677,"ELEMENT_SET_NO":999,"REV_AT_EPOCH":14096,"BSTAR":4.7682e-5,"MEAN_MOTION_DOT":3.3e-7,"MEAN_MOTION_DDOT":0},{"OBJECT_NAME":"ONEWEB-0659","OBJECT_ID":"2022-166AN","EPOCH":"2025-10-29T12:29:31.227648","MEAN_MOTION":13.21826427,"ECCENTRICITY":0.0001935,"INCLINATION":87.9171,"RA_OF_ASC_NODE":290.0138,"ARG_OF_PERICENTER":85.8743,"MEAN_ANOMALY":274.2612,"EPHEMERIS_TYPE":0,"CLASSIFICATION_TYPE":"U","NORAD_CAT_ID":54678,"ELEMENT_SET_NO":999,"REV_AT_EPOCH":14105,"BSTAR":-5.1598e-7,"MEAN_MOTION_DOT":1.3e-7,"MEAN_MOTION_DDOT":0},{"OBJECT_NAME":"ONEWEB-0685","OBJECT_ID":"2022-166AP","EPOCH":"2025-10-29T10:41:30.738624","MEAN_MOTION":13.21831265,"ECCENTRICITY":0.0001603,"INCLINATION":87.9166,"RA_OF_ASC_NODE":290.025,"ARG_OF_PERICENTER":86.0371,"MEAN_ANOMALY":274.0947,"EPHEMERIS_TYPE":0,"CLASSIFICATION_TYPE":"U","NORAD_CAT_ID":54679,"ELEMENT_SET_NO":999,"REV_AT_EPOCH":14093,"BSTAR":0.00015148,"MEAN_MOTION_DOT":7.6e-7,"MEAN_MOTION_DDOT":0},{"OBJECT_NAME":"ONEWEB-0712","OBJECT_ID":"2022-166AQ","EPOCH":"2025-10-29T11:38:44.501856","MEAN_MOTION":13.16595782,"ECCENTRICITY":0.0001742,"INCLINATION":87.8997,"RA_OF_ASC_NODE":274.7214,"ARG_OF_PERICENTER":102.1135,"MEAN_ANOMALY":258.0191,"EPHEMERIS_TYPE":0,"CLASSIFICATION_TYPE":"U","NORAD_CAT_ID":54680,"ELEMENT_SET_NO":999,"REV_AT_EPOCH":14170,"BSTAR":-7.352e-5,"MEAN_MOTION_DOT":-1.5e-7,"MEAN_MOTION_DDOT":0},{"OBJECT_NAME":"ONEWEB-0714","OBJECT_ID":"2022-166AR","EPOCH":"2025-10-29T10:49:57.269856","MEAN_MOTION":13.218266,"ECCENTRICITY":0.0001696,"INCLINATION":87.9168,"RA_OF_ASC_NODE":290.0175,"ARG_OF_PERICENTER":90.5864,"MEAN_ANOMALY":269.5464,"EPHEMERIS_TYPE":0,"CLASSIFICATION_TYPE":"U","NORAD_CAT_ID":54681,"ELEMENT_SET_NO":999,"REV_AT_EPOCH":14105,"BSTAR":0.00012981,"MEAN_MOTION_DOT":6.7e-7,"MEAN_MOTION_DDOT":0},{"OBJECT_NAME":"ONEWEB-0532","OBJECT_ID":"2023-004A","EPOCH":"2025-10-29T08:08:32.872704","MEAN_MOTION":13.17649584,"ECCENTRICITY":0.0001603,"INCLINATION":87.9125,"RA_OF_ASC_NODE":51.7614,"ARG_OF_PERICENTER":86.1872,"MEAN_ANOMALY":273.9443,"EPHEMERIS_TYPE":0,"CLASSIFICATION_TYPE":"U","NORAD_CAT_ID":55140,"ELEMENT_SET_NO":999,"REV_AT_EPOCH":13718,"BSTAR":0.00020847,"MEAN_MOTION_DOT":9.4e-7,"MEAN_MOTION_DDOT":0},{"OBJECT_NAME":"ONEWEB-0533","OBJECT_ID":"2023-004B","EPOCH":"2025-10-29T12:50:29.056128","MEAN_MOTION":13.12445171,"ECCENTRICITY":0.0001571,"INCLINATION":87.8971,"RA_OF_ASC_NODE":36.4831,"ARG_OF_PERICENTER":105.4396,"MEAN_ANOMALY":254.6906,"EPHEMERIS_TYPE":0,"CLASSIFICATION_TYPE":"U","NORAD_CAT_ID":55141,"ELEMENT_SET_NO":999,"REV_AT_EPOCH":13780,"BSTAR":-0.00064844,"MEAN_MOTION_DOT":-2.21e-6,"MEAN_MOTION_DDOT":0},{"OBJECT_NAME":"ONEWEB-0541","OBJECT_ID":"2023-004C","EPOCH":"2025-10-29T09:13:46.795296","MEAN_MOTION":13.11418035,"ECCENTRICITY":0.0001677,"INCLINATION":87.8849,"RA_OF_ASC_NODE":67.0098,"ARG_OF_PERICENTER":94.0086,"MEAN_ANOMALY":266.1234,"EPHEMERIS_TYPE":0,"CLASSIFICATION_TYPE":"U","NORAD_CAT_ID":55142,"ELEMENT_SET_NO":999,"REV_AT_EPOCH":13569,"BSTAR":-0.0011402,"MEAN_MOTION_DOT":-3.91e-6,"MEAN_MOTION_DDOT":0},{"OBJECT_NAME":"ONEWEB-0543","OBJECT_ID":"2023-004D","EPOCH":"2025-10-29T11:58:56.063136","MEAN_MOTION":13.18686443,"ECCENTRICITY":0.0001847,"INCLINATION":87.9206,"RA_OF_ASC_NODE":21.3185,"ARG_OF_PERICENTER":109.4624,"MEAN_ANOMALY":250.6708,"EPHEMERIS_TYPE":0,"CLASSIFICATION_TYPE":"U","NORAD_CAT_ID":55143,"ELEMENT_SET_NO":999,"REV_AT_EPOCH":13929,"BSTAR":0.00012089,"MEAN_MOTION_DOT":6.1e-7,"MEAN_MOTION_DDOT":0},{"OBJECT_NAME":"ONEWEB-0544","OBJECT_ID":"2023-004E","EPOCH":"2025-10-29T04:32:23.419680","MEAN_MOTION":13.18686062,"ECCENTRICITY":0.0001995,"INCLINATION":87.9208,"RA_OF_ASC_NODE":21.3699,"ARG_OF_PERICENTER":105.1265,"MEAN_ANOMALY":255.0088,"EPHEMERIS_TYPE":0,"CLASSIFICATION_TYPE":"U","NORAD_CAT_ID":55144,"ELEMENT_SET_NO":999,"REV_AT_EPOCH":13925,"BSTAR":0.00020596,"MEAN_MOTION_DOT":9.4e-7,"MEAN_MOTION_DDOT":0}]
